[ 
  {
	"fname":"Betty",
	"lname":"Gardenhour",
	"tel":"(991)-816-3596",
	"city":"Olive Branch",
	"state":"ND",
	"zip":"26844"
  },
   {
	"fname":"Sanil",
	"lname":"Cherian",
	"tel":"(925)-999-1234",
	"city":"Pleasonton",
	"state":"CA",
	"zip":"99999"
  },
  {
	"fname":"Mathew",
	"lname":"Abraham",
	"tel":"(921)-822-2123",
	"city":"Walnut Creek",
	"state":"CA",
	"zip":"45678"
  },
  {
	"fname":"Rojo",
	"lname":"Joseph",
	"tel":"(925)-999-9999",
	"city":"Arizona",
	"state":"TX",
	"zip":"56789"
  },
  {
	"fname":"Charles",
	"lname":"Pati",
	"tel":"(925)-888-6666",
	"city":"Ohio",
	"state":"PH",
	"zip":"34343"
  },  
  {
	"fname":"Shae",
	"lname":"Thos",
	"tel":"(991)-816-6767",
	"city":"Fremont",
	"state":"CA",
	"zip":"22334"
  },
  {
	"fname":"Gen",
	"lname":"Thoa",
	"tel":"(991)-816-2332",
	"city":"Sacremento",
	"state":"CA",
	"zip":"12123"
  },
   {
	"fname":"George",
	"lname":"Thomas",
	"tel":"(925)-361-1111",
	"city":"Pheonix",
	"state":"AZ",
	"zip":"99888"
  },
  {
	"fname":"Manu",
	"lname":"Shiji",
	"tel":"(925)-828-3344",
	"city":"Toronto",
	"state":"ON",
	"zip":"10101"
  },
  {
	"fname":"Vinod",
	"lname":"K.",
	"tel":"(925)-999-5050",
	"city":"New York",
	"state":"NY",
	"zip":"50505"
  },
  {
	"fname":"Lijo",
	"lname":"George",
	"tel":"(925)-888-4545",
	"city":"Tahoe",
	"state":"CA",
	"zip":"56565"
  },  
  {
	"fname":"Josh",
	"lname":"Kim",
	"tel":"(991)-816-9090",
	"city":"Santa Clara",
	"state":"CA",
	"zip":"50005"
  }       
]